{"type": "FeatureCollection", "features": [ {"type": "Feature", "properties": {"norad_id": 66403, "name": "STARLINK-35602", "group": "last-30-days", "lat": -40.440270562063475, "lon": -88.50097655025527, "alt_km": 424.0399735546507, "timestamp": "2025-12-02T19:35:49.342225+00:00", "meta": {"OBJECT_NAME": "STARLINK-35602", "OBJECT_ID": "2025-257Z", "EPOCH": "2025-12-02T12:00:05.998752", "MEAN_MOTION": 15.4931044, "ECCENTRICITY": 0.0001516, "INCLINATION": 53.1583, "RA_OF_ASC_NODE": 312.7308, "ARG_OF_PERICENTER": 87.6207, "MEAN_ANOMALY": 252.1582, "EPHEMERIS_TYPE": 0, "CLASSIFICATION_TYPE": "U", "NORAD_CAT_ID": 66403, "ELEMENT_SET_NO": 999, "REV_AT_EPOCH": 485, "BSTAR": -0.00075052, "MEAN_MOTION_DOT": -0.00041969, "MEAN_MOTION_DDOT": 0}, "tle": {"line1": "1 66403U 25257Z   25336.50006943 -.00041969  00000+0 -75052-3 0  9998", "line2": "2 66403  53.1583 312.7308 0001516  87.6207 252.1582 15.49310440  4856"}}, "geometry": {"type": "Point", "coordinates": [-88.50097655025527, -40.440270562063475]}}, {"type": "Feature", "properties": {"norad_id": 66404, "name": "STARLINK-35691", "group": "last-30-days", "lat": -39.24655666172773, "lon": -86.55875478849897, "alt_km": 423.8629078461636, "timestamp": "2025-12-02T19:35:49.342237+00:00", "meta": {"OBJECT_NAME": "STARLINK-35691", "OBJECT_ID": "2025-257AA", "EPOCH": "2025-12-02T12:00:05.998752", "MEAN_MOTION": 15.49303387, "ECCENTRICITY": 0.0001366, "INCLINATION": 53.1582, "RA_OF_ASC_NODE": 312.7263, "ARG_OF_PERICENTER": 85.6246, "MEAN_ANOMALY": 256.0733, "EPHEMERIS_TYPE": 0, "CLASSIFICATION_TYPE": "U", "NORAD_CAT_ID": 66404, "ELEMENT_SET_NO": 999, "REV_AT_EPOCH": 485, "BSTAR": -0.0005328, "MEAN_MOTION_DOT": -0.00029962, "MEAN_MOTION_DDOT": 0}, "tle": {"line1": "1 66404U 25257AA  25336.50006943 -.00029962  00000+0 -53280-3 0  9997", "line2": "2 66404  53.1582 312.7263 0001366  85.6246 256.0733 15.49303387  4853"}}, "geometry": {"type": "Point", "coordinates": [-86.55875478849897, -39.24655666172773]}}, {"type": "Feature", "properties": {"norad_id": 66405, "name": "STARLINK-35683", "group": "last-30-days", "lat": -38.01961733268211, "lon": -84.67926615468488, "alt_km": 423.7433504339706, "timestamp": "2025-12-02T19:35:49.342247+00:00", "meta": {"OBJECT_NAME": "STARLINK-35683", "OBJECT_ID": "2025-257AB", "EPOCH": "2025-12-02T12:00:05.998752", "MEAN_MOTION": 15.49303354, "ECCENTRICITY": 0.0001266, "INCLINATION": 53.1583, "RA_OF_ASC_NODE": 312.7219, "ARG_OF_PERICENTER": 86.4116, "MEAN_ANOMALY": 257.2045, "EPHEMERIS_TYPE": 0, "CLASSIFICATION_TYPE": "U", "NORAD_CAT_ID": 66405, "ELEMENT_SET_NO": 999, "REV_AT_EPOCH": 469, "BSTAR": -0.00053703, "MEAN_MOTION_DOT": -0.00030194, "MEAN_MOTION_DDOT": 0}, "tle": {"line1": "1 66405U 25257AB  25336.50006943 -.00030194  00000+0 -53703-3 0  9997", "line2": "2 66405  53.1583 312.7219 0001266  86.4116 257.2045 15.49303354  4695"}}, "geometry": {"type": "Point", "coordinates": [-84.67926615468488, -38.01961733268211]}}, {"type": "Feature", "properties": {"norad_id": 66406, "name": "STARLINK-34840", "group": "last-30-days", "lat": -34.20567055307838, "lon": -79.44340067841067, "alt_km": 423.8127488691671, "timestamp": "2025-12-02T19:35:49.342258+00:00", "meta": {"OBJECT_NAME": "STARLINK-34840", "OBJECT_ID": "2025-257AC", "EPOCH": "2025-12-02T06:00:02.999808", "MEAN_MOTION": 15.49326872, "ECCENTRICITY": 0.00014763, "INCLINATION": 53.1586, "RA_OF_ASC_NODE": 313.9062, "ARG_OF_PERICENTER": 92.9563, "MEAN_ANOMALY": 301.0415, "EPHEMERIS_TYPE": 0, "CLASSIFICATION_TYPE": "U", "NORAD_CAT_ID": 66406, "ELEMENT_SET_NO": 999, "REV_AT_EPOCH": 475, "BSTAR": -0.0014185476, "MEAN_MOTION_DOT": -0.00078605, "MEAN_MOTION_DDOT": 0}, "tle": {"line1": "1 66406U 25257AC  25336.25003472 -.00078605  00000+0 -14185-2 0  9993", "line2": "2 66406  53.1586 313.9062 0001476  92.9563 301.0415 15.49326872  4755"}}, "geometry": {"type": "Point", "coordinates": [-79.44340067841067, -34.20567055307838]}}, {"type": "Feature", "properties": {"norad_id": 66407, "name": "STARLINK-35686", "group": "last-30-days", "lat": -36.76582037981291, "lon": -82.865451647322, "alt_km": 423.78280042291135, "timestamp": "2025-12-02T19:35:49.342268+00:00", "meta": {"OBJECT_NAME": "STARLINK-35686", "OBJECT_ID": "2025-257AD", "EPOCH": "2025-12-02T12:00:05.998752", "MEAN_MOTION": 15.49310423, "ECCENTRICITY": 0.000148, "INCLINATION": 53.1582, "RA_OF_ASC_NODE": 312.718, "ARG_OF_PERICENTER": 88.0533, "MEAN_ANOMALY": 257.4748, "EPHEMERIS_TYPE": 0, "CLASSIFICATION_TYPE": "U", "NORAD_CAT_ID": 66407, "ELEMENT_SET_NO": 999, "REV_AT_EPOCH": 485, "BSTAR": -0.00070354, "MEAN_MOTION_DOT": -0.00039382, "MEAN_MOTION_DDOT": 0}, "tle": {"line1": "1 66407U 25257AD  25336.50006943 -.00039382  00000+0 -70354-3 0  9998", "line2": "2 66407  53.1582 312.7180 0001480  88.0533 257.4748 15.49310423  4857"}}, "geometry": {"type": "Point", "coordinates": [-82.865451647322, -36.76582037981291]}}, {"type": "Feature", "properties": {"norad_id": 66408, "name": "STARLINK-35679", "group": "last-30-days", "lat": -35.48231665934089, "lon": -81.10542685251687, "alt_km": 423.63672255035726, "timestamp": "2025-12-02T19:35:49.342279+00:00", "meta": {"OBJECT_NAME": "STARLINK-35679", "OBJECT_ID": "2025-257AE", "EPOCH": "2025-12-02T12:00:05.998752", "MEAN_MOTION": 15.49308362, "ECCENTRICITY": 0.0001417, "INCLINATION": 53.1582, "RA_OF_ASC_NODE": 312.7153, "ARG_OF_PERICENTER": 85.2257, "MEAN_ANOMALY": 262.225, "EPHEMERIS_TYPE": 0, "CLASSIFICATION_TYPE": "U", "NORAD_CAT_ID": 66408, "ELEMENT_SET_NO": 999, "REV_AT_EPOCH": 485, "BSTAR": -0.00072392, "MEAN_MOTION_DOT": -0.00040502, "MEAN_MOTION_DDOT": 0}, "tle": {"line1": "1 66408U 25257AE  25336.50006943 -.00040502  00000+0 -72392-3 0  9999", "line2": "2 66408  53.1582 312.7153 0001417  85.2257 262.2250 15.49308362  4851"}}, "geometry": {"type": "Point", "coordinates": [-81.10542685251687, -35.48231665934089]}}, {"type": "Feature", "properties": {"norad_id": 66409, "name": "CHUTIAN-2 A", "group": "last-30-days", "lat": 32.512015704337365, "lon": -132.92302552733963, "alt_km": 719.4028863346512, "timestamp": "2025-12-02T19:35:49.342290+00:00", "meta": {"OBJECT_NAME": "CHUTIAN-2 A", "OBJECT_ID": "2025-256A", "EPOCH": "2025-12-02T12:17:43.227168", "MEAN_MOTION": 14.49914726, "ECCENTRICITY": 0.0013276, "INCLINATION": 98.2774, "RA_OF_ASC_NODE": 41.4543, "ARG_OF_PERICENTER": 208.9722, "MEAN_ANOMALY": 151.0737, "EPHEMERIS_TYPE": 0, "CLASSIFICATION_TYPE": "U", "NORAD_CAT_ID": 66409, "ELEMENT_SET_NO": 999, "REV_AT_EPOCH": 339, "BSTAR": 3.4537e-05, "MEAN_MOTION_DOT": 9e-07, "MEAN_MOTION_DDOT": 0}, "tle": {"line1": "1 66409U 25256A   25336.51230587  .00000090  00000+0  34537-4 0  9999", "line2": "2 66409  98.2774  41.4543 0013276 208.9722 151.0737 14.49914726  3390"}}, "geometry": {"type": "Point", "coordinates": [-132.92302552733963, 32.512015704337365]}}, {"type": "Feature", "properties": {"norad_id": 66410, "name": "CHUTIAN-2 B", "group": "last-30-days", "lat": -25.296848981818705, "lon": -142.16120838389605, "alt_km": 718.6310634623615, "timestamp": "2025-12-02T19:35:49.342302+00:00", "meta": {"OBJECT_NAME": "CHUTIAN-2 B", "OBJECT_ID": "2025-256B", "EPOCH": "2025-12-02T12:01:57.141984", "MEAN_MOTION": 14.51002876, "ECCENTRICITY": 0.0013244, "INCLINATION": 98.2801, "RA_OF_ASC_NODE": 41.4752, "ARG_OF_PERICENTER": 212.9986, "MEAN_ANOMALY": 147.0384, "EPHEMERIS_TYPE": 0, "CLASSIFICATION_TYPE": "U", "NORAD_CAT_ID": 66410, "ELEMENT_SET_NO": 999, "REV_AT_EPOCH": 339, "BSTAR": 0.00024704, "MEAN_MOTION_DOT": 9.34e-06, "MEAN_MOTION_DDOT": 0}, "tle": {"line1": "1 66410U 25256B   25336.50135581  .00000934  00000+0  24704-3 0  9999", "line2": "2 66410  98.2801  41.4752 0013244 212.9986 147.0384 14.51002876  3397"}}, "geometry": {"type": "Point", "coordinates": [-142.16120838389605, -25.296848981818705]}}, {"type": "Feature", "properties": {"norad_id": 66411, "name": "ZK-1A R/B", "group": "last-30-days", "lat": 24.23736927362221, "lon": -132.34626316675536, "alt_km": 646.4835246387711, "timestamp": "2025-12-02T19:35:49.342313+00:00", "meta": {"OBJECT_NAME": "ZK-1A R/B", "OBJECT_ID": "2025-256C", "EPOCH": "2025-11-20T17:22:35.449824", "MEAN_MOTION": 15.012361, "ECCENTRICITY": 0.02323532, "INCLINATION": 98.3243, "RA_OF_ASC_NODE": 30.9055, "ARG_OF_PERICENTER": 318.4537, "MEAN_ANOMALY": 39.9225, "EPHEMERIS_TYPE": 0, "CLASSIFICATION_TYPE": "U", "NORAD_CAT_ID": 66411, "ELEMENT_SET_NO": 999, "REV_AT_EPOCH": 174, "BSTAR": 0.00048987823, "MEAN_MOTION_DOT": 0.00011214, "MEAN_MOTION_DDOT": 0}, "tle": {"line1": "1 66411U 25256C   25324.72402141  .00011214  00000+0  48988-3 0  9993", "line2": "2 66411  98.3243  30.9055 0232353 318.4537  39.9225 15.01236100  1741"}}, "geometry": {"type": "Point", "coordinates": [-132.34626316675536, 24.23736927362221]}}, {"type": "Feature", "properties": {"norad_id": 66412, "name": "HULIANWANG DIGUI 13A", "group": "last-30-days", "lat": 25.80591745936874, "lon": -32.31203072553504, "alt_km": 807.0923353333019, "timestamp": "2025-12-02T19:35:49.342324+00:00", "meta": {"OBJECT_NAME": "HULIANWANG DIGUI 13A", "OBJECT_ID": "2025-258A", "EPOCH": "2025-12-02T07:38:28.687776", "MEAN_MOTION": 14.23490407, "ECCENTRICITY": 0.00140664, "INCLINATION": 50.0038, "RA_OF_ASC_NODE": 305.834, "ARG_OF_PERICENTER": 321.1901, "MEAN_ANOMALY": 38.8001, "EPHEMERIS_TYPE": 0, "CLASSIFICATION_TYPE": "U", "NORAD_CAT_ID": 66412, "ELEMENT_SET_NO": 999, "REV_AT_EPOCH": 317, "BSTAR": 0.00010239421, "MEAN_MOTION_DOT": 7.5e-07, "MEAN_MOTION_DDOT": 0}, "tle": {"line1": "1 66412U 25258A   25336.31838759  .00000075  00000+0  10239-3 0  9993", "line2": "2 66412  50.0038 305.8340 0014066 321.1901  38.8001 14.23490407  3179"}}, "geometry": {"type": "Point", "coordinates": [-32.31203072553504, 25.80591745936874]}}]}